[{"OBJECT_NAME":"STARLINK-5729","OBJECT_ID":"2023-020AD","EPOCH":"2026-03-09T22:00:01.999584","MEAN_MOTION":15.10104174,"ECCENTRICITY":9.821e-5,"INCLINATION":42.9997,"RA_OF_ASC_NODE":2.8491,"ARG_OF_PERICENTER":242.2129,"MEAN_ANOMALY":346.1294,"EPHEMERIS_TYPE":0,"CLASSIFICATION_TYPE":"U","NORAD_CAT_ID":55596,"ELEMENT_SET_NO":999,"REV_AT_EPOCH":577,"BSTAR":0.073258172,"MEAN_MOTION_DOT":0.01319331,"MEAN_MOTION_DDOT":0},{"OBJECT_NAME":"SCS-01 D","OBJECT_ID":"2025-100D","EPOCH":"2026-03-09T18:08:45.040704","MEAN_MOTION":15.31902149,"ECCENTRICITY":0.00063457,"INCLINATION":97.373,"RA_OF_ASC_NODE":145.4097,"ARG_OF_PERICENTER":266.2302,"MEAN_ANOMALY":93.8214,"EPHEMERIS_TYPE":0,"CLASSIFICATION_TYPE":"U","NORAD_CAT_ID":63985,"ELEMENT_SET_NO":999,"REV_AT_EPOCH":4562,"BSTAR":0.0010528181,"MEAN_MOTION_DOT":0.00032471,"MEAN_MOTION_DDOT":0}]
